CUTE-1 (CO-55)          
1 27844U 03031E   22260.57164841  .00000222  00000+0  11890-3 0  9997
2 27844  98.6812 266.8758 0009554 188.7711 171.3302 14.22494049996964
CUBESAT XI-IV (CO-57)   
1 27848U 03031J   22260.49311514  .00000178  00000+0  10019-3 0  9995
2 27848  98.6855 267.2984 0009192 203.8883 156.1869 14.22045462996766
CUBESAT XI-V            
1 28895U 05043F   22260.35122853  .00001006  00000+0  19876-3 0  9995
2 28895  98.1188  30.3808 0016032 208.2044 151.8292 14.64475763900861
CUTE-1.7+APD II (CO-65) 
1 32785U 08021C   22260.45068873  .00002228  00000+0  23719-3 0  9997
2 32785  97.6673 228.4440 0011014 292.2777  67.7273 14.89866272780181
AAUSAT-II               
1 32788U 08021F   22260.49724500  .00004945  00000+0  42175-3 0  9995
2 32788  97.5414 242.6258 0011793 162.3685 197.7949 14.98111210782215
DELFI-C3 (DO-64)        
1 32789U 08021G   22260.50763862  .00011732  00000+0  61925-3 0  9998
2 32789  97.3358 283.5710 0009905  16.8266 343.3294 15.15638645785860
SEEDS II (CO-66)        
1 32791U 08021J   22260.40391386  .00003258  00000+0  31778-3 0  9995
2 32791  97.6212 233.7974 0011040 239.5121 120.5009 14.93075520780913
SWISSCUBE               
1 35932U 09051B   22260.13070990  .00000589  00000+0  14203-3 0  9992
2 35932  98.5572 118.5859 0008427 120.5492 239.6538 14.56959308689448
BEESAT-1                
1 35933U 09051C   22260.15380963  .00000501  00000+0  12243-3 0  9995
2 35933  98.5509 120.1743 0006475 129.8853 230.2915 14.56963652689526
ITUPSAT1                
1 35935U 09051E   22260.50240620  .00000464  00000+0  11620-3 0  9997
2 35935  98.5608 120.5634 0008733 134.5483 225.6428 14.56065798689275
TISAT 1                 
1 36799U 10035E   22260.53411028  .00002691  00000+0  26284-3 0  9991
2 36799  98.1722 114.5867 0012325 147.7104 212.4871 14.93246515661507
M-CUBED & EXP-1 PRIME   
1 37855U 11061F   22260.42362495  .00014280  00000+0  60250-3 0  9994
2 37855 101.7211  68.3501 0148890 146.6473 214.4233 15.13944254595148
AEROCUBE 4.5A           
1 38767U 12048K   22260.08852553  .00003998  00000+0  28237-3 0  9997
2 38767  64.6653 182.9572 0170681 237.5369 120.9146 14.95414038164480
AEROCUBE 4.5B           
1 38768U 12048L   22260.47400982  .00004409  00000+0  28211-3 0  9996
2 38768  64.6653 134.1468 0156448 232.8259 125.8488 15.00382097164956
STRAND-1                
1 39090U 13009E   22260.52755776  .00000175  00000+0  76040-4 0  9993
2 39090  98.4008  96.2486 0009152   4.9569 355.1706 14.35326351500608
BRITE-AUSTRIA           
1 39091U 13009F   22260.51369665  .00000131  00000+0  60754-4 0  9998
2 39091  98.4028  95.4175 0010687  10.4641 349.6765 14.35299943500637
SOMP                    
1 39134U 13015E   22260.03413072  .00015530  00000+0  51725-3 0  9998
2 39134  64.8600 120.8446 0035230 265.1345  94.5765 15.30705524520869
BEESAT-3                
1 39135U 13015F   22260.02758146  .00012633  00000+0  49340-3 0  9993
2 39135  64.8652 159.2250 0039353 269.5425  90.1196 15.25471433520079
BEESAT-2                
1 39136U 13015G   22260.13720694  .00009919  00000+0  40815-3 0  9994
2 39136  64.8740 167.5911 0021934 293.8156  66.0674 15.24389115519885
NEE-01 PEGASO           
1 39151U 13018B   22260.26028974  .00001270  00000+0  17015-3 0  9998
2 39151  97.9960   5.6414 0015838 321.1972  38.8102 14.81123582507268
ESTCUBE 1               
1 39161U 13021C   22260.39822019  .00001164  00000+0  18827-3 0  9993
2 39161  97.9054 335.2305 0010435 121.8446 238.3769 14.73097793503002
POPACS 1                
1 39268U 13055D   22259.92332043  .00012179  00000+0  30697-3 0  9995
2 39268  80.9963 140.9374 0559408 283.8095  70.1474 14.53190002466575
POPACS 2                
1 39269U 13055E   22260.29702671  .00011053  00000+0  29794-3 0  9992
2 39269  81.0138 200.1520 0643192  77.2653 289.9594 14.34110815463341
POPACS 3                
1 39270U 13055F   22260.38962103  .00004321  00000+0  12962-3 0  9991
2 39270  81.0128 234.5582 0686099 174.5388 186.3809 14.22674467441700
ZACUBE-1 (TSHEPISOSAT)  
1 39417U 13066B   22260.43237327  .00001782  00000+0  22116-3 0  9995
2 39417  97.6463 227.8349 0059149 102.6232 258.1605 14.82598233476751
WNISAT-1                
1 39423U 13066H   22260.60752157  .00000479  00000+0  10368-3 0  9992
2 39423  97.7375 135.2398 0173455 209.5525 149.5800 14.53567519467847
TRITON-1                
1 39427U 13066M   22260.49016644  .00002120  00000+0  33600-3 0  9996
2 39427  97.8144 192.2991 0110809 331.2768  28.2364 14.69191472472486
DELFI-N3XT              
1 39428U 13066N   22260.52889531  .00003429  00000+0  52871-3 0  9998
2 39428  97.8146 190.9491 0116463 344.2782  15.4819 14.69539318472052
GOMX-1                  
1 39430U 13066Q   22260.54732411  .00001180  00000+0  21673-3 0  9995
2 39430  97.8006 162.4605 0150165 114.1970 247.4997 14.60355203469736
CUBEBUG-2 (LO-74)       
1 39440U 13066AA  22260.44649400  .00001298  00000+0  18124-3 0  9997
2 39440  97.7344 214.1872 0077911 191.9489 167.9876 14.77252144473866
NEE-02 KRYSAOR          
1 39441U 13066AB  22260.39406092  .00000939  00000+0  13717-3 0  9994
2 39441  97.7453 211.2670 0079522 206.4687 153.2452 14.75920585473591
FUNCUBE-1 (AO-73)       
1 39444U 13066AE  22260.44796591  .00002387  00000+0  28631-3 0  9999
2 39444  97.6342 230.2695 0058034  90.5410 270.2454 14.83733295475165
UWE-3                   
1 39446U 13066AG  22260.44465719  .00001508  00000+0  19904-3 0  9993
2 39446  97.6949 220.5891 0069096 148.1794 212.3622 14.79810141474068
AEROCUBE 5A             
1 39465U 13072D   22260.01655357  .00055138  00000+0  27456-2 0  9991
2 39465 120.4843 295.8015 0183623  17.6686 343.0665 15.03606640163354
AEROCUBE 5B             
1 39466U 13072E   22260.34397398  .00096452  00000+0  23005-2 0  9996
2 39466 120.4542  36.6683 0113064  35.9976 324.8657 15.34440427164745
BRITE-CA1 (TORONTO)     
1 40020U 14033L   22260.42377198  .00000507  00000+0  93856-4 0  9996
2 40020  97.7905  54.7646 0086001 330.9977  28.6464 14.67132266441142
DUCHIFAT-1              
1 40021U 14033M   22260.41964512  .00004250  00000+0  41002-3 0  9992
2 40021  98.0197 212.3524 0014213  96.1675 264.1163 14.93361407448420
NANOSATC-BR1            
1 40024U 14033Q   22260.36387010  .00002417  00000+0  24317-3 0  9994
2 40024  97.9907 205.1700 0013313 102.1349 258.1362 14.92128262447682
QB50P1                  
1 40025U 14033R   22260.35336706  .00002169  00000+0  22584-3 0  9998
2 40025  97.9632 198.5030 0013551 111.5305 248.7358 14.90833329447459
QB50P2                  
1 40032U 14033Y   22260.34780270  .00002257  00000+0  23825-3 0  9991
2 40032  97.9389 193.5238 0013038 109.4783 250.7844 14.90235274447309
PERSEUS-M2              
1 40037U 14033AD  22260.34995128  .00000932  00000+0  10944-3 0  9992
2 40037  97.8935 182.0499 0015266 132.3000 227.9512 14.87234462446787
PERSEUS-M1              
1 40039U 14033AF  22260.50356601  .00000910  00000+0  10799-3 0  9993
2 40039  97.8828 179.7926 0015153 130.9453 229.3077 14.86840510447193
POLYITAN-1              
1 40042U 14033AJ  22260.43147792  .00002850  00000+0  29413-3 0  9996
2 40042  97.9739 199.9021 0015750 104.3176 255.9792 14.90923652447350
TIGRISAT                
1 40043U 14033AK  22260.48223928  .00001233  00000+0  18505-3 0  9992
2 40043  97.6577  84.7934 0058162 217.2797 142.4369 14.75159865443197
AEROCUBE 6A             
1 40045U 14033AM  22260.50071205  .00001207  00000+0  17579-3 0  9997
2 40045  97.6637  93.8638 0055890 204.3917 155.4648 14.76552399443367
AEROCUBE 6B             
1 40046U 14033AN  22260.52161148  .00002257  00000+0  31944-3 0  9994
2 40046  97.6558  92.3048 0054894 202.1988 157.6846 14.77004932443759
UKUBE-1                 
1 40074U 14037F   22260.56267468  .00002294  00000+0  27141-3 0  9990
2 40074  98.3681 146.0036 0004707   7.6697 352.4557 14.85677423443745
BRITE-PL2 (HEWELIUSZ)   
1 40119U 14049B   22260.23915513  .00000993  00000+0  12181-3 0  9990
2 40119  97.8842 354.9335 0015988 304.4975  55.4729 14.85281242437632
FIREBIRD 4              
1 40378U 15003C   22260.41311780  .00018610  00000+0  51666-3 0  9990
2 40378  99.0851 146.1877 0096356  72.9341 288.2423 15.32350606422496
GRIFEX                  
1 40379U 15003D   22260.37650542  .00010148  00000+0  34503-3 0  9997
2 40379  99.0983 131.0061 0113082 118.2744 242.9956 15.24721650421622
CP10 (EXOCUBE)          
1 40380U 15003E   22260.49595166  .00007829  00000+0  29333-3 0  9999
2 40380  99.1095 123.5032 0121483 143.4237 217.5366 15.20928450421147
TIANWANG 1A (TW-1A)     
1 40928U 15051D   22260.34623153  .00071938  00000+0  65664-3 0  9991
2 40928  97.0323 282.6301 0007665  59.1107  69.3029 15.67610014392596
EXACTVIEW 9             
1 40936U 15052G   22259.59077202  .00002049  00000+0  19341-3 0  9992
2 40936   6.0023 243.0388 0010261   4.9982 355.0248 14.77297000376713
AEROCUBE 5C             
1 40965U 15058B   22260.47830434  .00001030  00000+0  13340-3 0  9995
2 40965  64.7777 172.0634 0181053 170.1550 190.3183 14.75848436162547
AEROCUBE 7              
1 40966U 15058C   22260.16972750  .00001388  00000+0  17149-3 0  9997
2 40966  64.7776 169.9454 0178965 169.8970 190.5813 14.76455384162506
ATHENOXAT 1             
1 41168U 15077C   22259.98505441  .00020058  00000+0  79215-3 0  9997
2 41168  14.9834 130.9814 0008908  83.3046  48.5846 15.22992527374278
GALASSIA                
1 41170U 15077E   22260.26318825  .00012004  00000+0  47757-3 0  9999
2 41170  14.9870 120.6141 0010007 119.2096 240.9227 15.21898337374226
VELOX-II                
1 41171U 15077F   22260.21636765  .00008738  00000+0  39469-3 0  9991
2 41171  14.9901 199.1969 0007700 307.4102  52.5519 15.16890489373567
HORYU-4                 
1 41340U 16012D   22259.98702587  .00004302  00000+0  29908-3 0  9997
2 41340  31.0038 134.3560 0013016  30.2844 329.8542 15.03781740361518
